CRE (WAAS/PRN 138)      
1 28868U 05036A   22358.67328451 -.00000063  00000+0  00000+0 0  9990
2 28868   1.0432  91.8879 0000506 130.3344   6.0191  1.00270761 33710
IOR-W (EGNOS/PRN 126)   
1 28899U 05044A   22358.85080765  .00000018  00000+0  00000+0 0  9995
2 28899   3.6531  39.0341 0002729 239.6054 184.8889  1.00271694 62784
QZS-1 (QZSS/PRN 183)    
1 37158U 10045A   22359.27757681 -.00000133  00000+0  00000+0 0  9994
2 37158  42.5414 130.7593 0756508 270.4001 289.3658  1.00258742 44984
GSAT-8 (GAGAN/PRN 127)  
1 37605U 11022A   22359.49459361  .00000092  00000+0  00000+0 0  9998
2 37605   0.0192 284.1681 0008454 337.8226  65.1232  1.00271903 42511
LUCH 5A (SDCM/PRN 140)  
1 37951U 11074B   22358.58868910 -.00000041  00000+0  00000+0 0  9997
2 37951   5.4955  94.1311 0002686 152.9924 224.7729  1.00273554 40451
SES-5 (EGNOS/PRN 136)   
1 38652U 12036A   22358.91368913  .00000044  00000+0  00000+0 0  9992
2 38652   0.0559 298.0166 0001751 330.3672 158.9299  1.00271250 31752
GSAT-10 (GAGAN/PRN 128) 
1 38779U 12051B   22359.50017219 -.00000157  00000+0  00000+0 0  9991
2 38779   0.0771  99.3866 0004427 170.9913  86.6861  1.00269119 37564
LUCH 5B (SDCM/PRN 125)  
1 38977U 12061A   22358.90658492 -.00000131  00000+0  00000+0 0  9991
2 38977   7.7031  61.1654 0002415 143.3207 198.9610  1.00271519 37436
ASTRA 5B (EGNOS/PRN 123)
1 39617U 14011B   22358.87341240  .00000165  00000+0  00000+0 0  9992
2 39617   0.0322   4.6426 0003214 259.8113 174.8431  1.00268107 31935
LUCH 5V (SDCM/PRN 141)  
1 39727U 14023A   22359.16230898 -.00000259  00000+0  00000+0 0  9991
2 39727   1.9579  77.1184 0003076 217.7574 311.8615  1.00266001549771
GSAT-15 (GAGAN/PRN 139) 
1 41028U 15065A   22359.14358006 -.00000249  00000+0  00000+0 0  9994
2 41028   0.0158 312.1854 0001658 280.9031   5.7457  1.00271696 26129
E 117 W B (WAAS/PRN 131)
1 41589U 16038B   22358.67127972  .00000000  00000+0  00000+0 0  9994
2 41589   0.0122 163.0750 0000353 142.9072 271.8577  1.00271348 23932
SES-15 (WAAS/PRN 133)   
1 42709U 17026A   22358.74066312  .00000071  00000+0  00000+0 0  9993
2 42709   0.0166 359.2633 0000938 190.0377  41.4347  1.00270349 21401
QZS-2 (QZSS/PRN 184)    
1 42738U 17028A   22358.60396538 -.00000142  00000+0  00000+0 0  9998
2 42738  41.4569 261.4758 0757086 269.5196 280.2337  1.00283915 20409
QZS-3 (QZSS/PRN 189)    
1 42917U 17048A   22359.53211029 -.00000341  00000+0  00000+0 0  9994
2 42917   0.0605 200.5229 0002283  82.5819 129.5039  1.00269559 19639
QZS-4 (QZSS/PRN 185)    
1 42965U 17062A   22358.81855038 -.00000325  00000+0  00000+0 0  9999
2 42965  40.7205 359.6759 0750578 271.6620 252.6097  1.00252469 19073
GALAXY 30 (WAAS/PRN 135)
1 46114U 20056C   22359.22688332  .00000046  00000+0  00000+0 0  9992
2 46114   0.0166  20.5147 0001835 249.9784 139.8853  1.00270905  8661
